NORAD_CAT_ID,OBJECT_NAME,OBJECT_TYPE,EPOCH,MEAN_MOTION,ECCENTRICITY,INCLINATION,RA_OF_ASC_NODE,ARG_OF_PERICENTER,MEAN_ANOMALY,BSTAR,MEAN_MOTION_DOT,MEAN_MOTION_DDOT,TLE_LINE0,TLE_LINE1,TLE_LINE2,SEMIMAJOR_AXIS,PERIOD,APOGEE,PERIGEE,DECAYED
55743.0,STARLINK-5602,PAYLOAD,2024-04-28 20:34:02,14.98349855,0.0002947,69.9995,158.7267,267.5814,92.5007,-0.00044993,-5.46e-05,0.0,0 STARLINK-5602,1 55743U 23028C   24119.85697899 -.00005460  00000-0 -44993-3 0  9996,2 55743  69.9995 158.7267 0002947 267.5814  92.5007 14.98349855 64205,6950.131,96.106,574.045,569.948,0.0
55743.0,STARLINK-5602,PAYLOAD,2024-04-29 04:34:43,14.98327588,0.0002868,69.9994,157.8849,272.0198,88.0633,9.1135e-05,9.94e-06,0.0,0 STARLINK-5602,1 55743U 23028C   24120.19078599  .00000994  00000-0  91135-4 0  9991,2 55743  69.9994 157.8849 0002868 272.0198  88.0633 14.98327588 64257,6950.2,96.107,574.059,570.072,0.0
55743.0,STARLINK-5602,PAYLOAD,2024-04-29 12:35:24,14.98329692,0.0002878,69.9993,157.0432,271.2527,88.8302,2.9378e-05,2.58e-06,0.0,0 STARLINK-5602,1 55743U 23028C   24120.52458577  .00000258  00000-0  29378-4 0  9999,2 55743  69.9993 157.0432 0002878 271.2527  88.8302 14.98329692 64309,6950.194,96.107,574.059,570.059,0.0
55743.0,STARLINK-5602,PAYLOAD,2024-04-30 04:36:44,14.98330074,0.0003018,69.9988,155.36,270.007,90.0743,0.00022928,2.644e-05,0.0,0 STARLINK-5602,1 55743U 23028C   24121.19218120  .00002644  00000-0  22928-3 0  9995,2 55743  69.9988 155.3600 0003018 270.0070  90.0743 14.98330074 64409,6950.193,96.107,574.155,569.96,0.0
55743.0,STARLINK-5602,PAYLOAD,2024-04-30 12:37:24,14.98334689,0.0003066,69.9986,154.5184,269.5644,90.5163,0.00024001,2.772e-05,0.0,0 STARLINK-5602,1 55743U 23028C   24121.52597937  .00002772  00000-0  24001-3 0  9994,2 55743  69.9986 154.5184 0003066 269.5644  90.5163 14.98334689 64450,6950.178,96.107,574.174,569.912,0.0
55743.0,STARLINK-5602,PAYLOAD,2024-04-30 19:01:56,14.98334245,0.0003038,69.9987,153.8451,269.9883,90.0928,0.00018403,2.104e-05,0.0,0 STARLINK-5602,1 55743U 23028C   24121.79302054  .00002104  00000-0  18403-3 0  9995,2 55743  69.9987 153.8451 0003038 269.9883  90.0928 14.98334245 64494,6950.18,96.107,574.156,569.933,0.0
55743.0,STARLINK-5602,PAYLOAD,2024-05-01 04:38:45,14.98336341,0.0002996,69.9987,152.8352,269.809,90.2725,0.00012772,1.431e-05,0.0,0 STARLINK-5602,1 55743U 23028C   24122.19357966  .00001431  00000-0  12772-3 0  9997,2 55743  69.9987 152.8352 0002996 269.8090  90.2725 14.98336341 64557,6950.173,96.107,574.121,569.956,0.0
55743.0,STARLINK-5602,PAYLOAD,2024-05-01 07:51:01,14.98336662,0.0002996,69.9988,152.4986,269.9442,90.1374,0.00012733,1.427e-05,0.0,0 STARLINK-5602,1 55743U 23028C   24122.32709901  .00001427  00000-0  12733-3 0  9994,2 55743  69.9988 152.4986 0002996 269.9442  90.1374 14.98336662 64576,6950.172,96.107,574.12,569.955,0.0
55743.0,STARLINK-5602,PAYLOAD,2024-05-01 19:03:57,14.98338299,0.0003,69.9986,151.3203,269.7445,90.337,9.495e-05,1.04e-05,0.0,0 STARLINK-5602,1 55743U 23028C   24122.79441583  .00001040  00000-0  94950-4 0  9997,2 55743  69.9986 151.3203 0003000 269.7445  90.3370 14.98338299 64646,6950.167,96.106,574.117,569.947,0.0
55743.0,STARLINK-5602,PAYLOAD,2024-05-02 04:40:45,14.98337915,0.0002921,69.9986,150.3104,269.9681,90.1143,2.6521e-05,2.24e-06,0.0,0 STARLINK-5602,1 55743U 23028C   24123.19497558  .00000224  00000-0  26521-4 0  9997,2 55743  69.9986 150.3104 0002921 269.9681  90.1143 14.98337915 64707,6950.168,96.106,574.064,570.003,0.0
55743.0,STARLINK-5602,PAYLOAD,2024-05-02 11:05:18,14.98336285,0.0002951,69.9986,149.6371,269.717,90.3651,-1.4688e-06,-1.11e-06,0.0,0 STARLINK-5602,1 55743U 23028C   24123.46201557 -.00000111  00000-0 -14688-5 0  9998,2 55743  69.9986 149.6371 0002951 269.7170  90.3651 14.98336285 64747,6950.173,96.107,574.089,569.987,0.0
55743.0,STARLINK-5602,PAYLOAD,2024-05-03 04:42:46,14.98334648,0.0002967,69.9983,147.7853,269.299,90.7829,2.6938e-05,2.28e-06,0.0,0 STARLINK-5602,1 55743U 23028C   24124.19637331  .00000228  00000-0  26938-4 0  9999,2 55743  69.9983 147.7853 0002967 269.2990  90.7829 14.98334648 64854,6950.179,96.107,574.106,569.981,0.0
55743.0,STARLINK-5602,PAYLOAD,2024-05-03 11:07:18,14.98333398,0.0002989,69.9984,147.1119,269.0516,91.0301,1.4164e-05,7.6e-07,0.0,0 STARLINK-5602,1 55743U 23028C   24124.46341354  .00000076  00000-0  14164-4 0  9995,2 55743  69.9984 147.1119 0002989 269.0516  91.0301 14.98333398 64894,6950.182,96.107,574.125,569.97,0.0
55743.0,STARLINK-5602,PAYLOAD,2024-05-03 19:07:59,14.98328878,0.0003039,69.9981,146.2696,268.9882,91.0929,1.4645e-05,8.2e-07,0.0,0 STARLINK-5602,1 55743U 23028C   24124.79721520  .00000082  00000-0  14645-4 0  9999,2 55743  69.9981 146.2696 0003039 268.9882  91.0929 14.98328878 64941,6950.196,96.107,574.174,569.949,0.0
55743.0,STARLINK-5602,PAYLOAD,2024-05-04 04:44:48,14.98325619,0.0003017,69.9981,145.2597,268.6841,91.3972,-2.4688e-05,-3.88e-06,0.0,0 STARLINK-5602,1 55743U 23028C   24125.19777918 -.00000388  00000-0 -24688-4 0  9995,2 55743  69.9981 145.2597 0003017 268.6841  91.3972 14.98325619 65007,6950.206,96.107,574.168,569.975,0.0
55743.0,STARLINK-5602,PAYLOAD,2024-05-05 04:46:49,14.98326527,0.0003055,69.9982,142.7353,270.0626,90.0183,-2.1175e-06,-1.18e-06,0.0,0 STARLINK-5602,1 55743U 23028C   24126.19918129 -.00000118  00000-0 -21175-5 0  9997,2 55743  69.9982 142.7353 0003055 270.0626  90.0183 14.98326527 65155,6950.204,96.107,574.192,569.945,0.0
55743.0,STARLINK-5602,PAYLOAD,2024-05-05 11:11:21,14.98327037,0.0003079,69.9982,142.0621,270.484,89.5966,2.2911e-06,-6.6e-07,0.0,0 STARLINK-5602,1 55743U 23028C   24126.46622152 -.00000066  00000-0  22911-5 0  9995,2 55743  69.9982 142.0621 0003079 270.4840  89.5966 14.98327037 65197,6950.202,96.107,574.207,569.927,0.0
55743.0,STARLINK-5602,PAYLOAD,2024-05-06 04:48:50,14.98325872,0.0003092,69.9982,140.2105,270.6815,89.3989,0.00010484,1.158e-05,0.0,0 STARLINK-5602,1 55743U 23028C   24127.20058200  .00001158  00000-0  10484-3 0  9997,2 55743  69.9982 140.2105 0003092 270.6815  89.3989 14.98325872 65304,6950.206,96.107,574.22,569.922,0.0
55743.0,STARLINK-5602,PAYLOAD,2024-05-06 11:13:22,14.98328044,0.0003095,69.9982,139.537,271.0262,89.0542,0.00011372,1.264e-05,0.0,0 STARLINK-5602,1 55743U 23028C   24127.46762127  .00001264  00000-0  11372-3 0  9990,2 55743  69.9982 139.5370 0003095 271.0262  89.0542 14.98328044 65343,6950.199,96.107,574.215,569.913,0.0
55743.0,STARLINK-5602,PAYLOAD,2024-05-06 17:37:54,14.98330042,0.0003095,69.9982,138.8638,270.8594,89.2211,0.00012332,1.379e-05,0.0,0 STARLINK-5602,1 55743U 23028C   24127.73466056  .00001379  00000-0  12332-3 0  9996,2 55743  69.9982 138.8638 0003095 270.8594  89.2211 14.98330042 65387,6950.193,96.107,574.209,569.907,0.0
55743.0,STARLINK-5602,PAYLOAD,2024-05-07 04:50:50,14.9833412,0.0003098,69.9981,137.6853,270.4807,89.5997,0.00013298,1.494e-05,0.0,0 STARLINK-5602,1 55743U 23028C   24128.20197781  .00001494  00000-0  13298-3 0  9995,2 55743  69.9981 137.6853 0003098 270.4807  89.5997 14.98334120 65451,6950.18,96.107,574.198,569.892,0.0
55743.0,STARLINK-5602,PAYLOAD,2024-05-07 11:15:23,14.98334296,0.0003094,69.9982,137.012,270.794,89.2864,0.00012799,1.435e-05,0.0,0 STARLINK-5602,1 55743U 23028C   24128.46901739  .00001435  00000-0  12799-3 0  9999,2 55743  69.9982 137.0120 0003094 270.7940  89.2864 14.98334296 65498,6950.18,96.107,574.195,569.894,0.0
55743.0,STARLINK-5602,PAYLOAD,2024-05-07 17:39:55,14.98336143,0.0003103,69.9982,136.3389,269.3829,90.6974,0.00013508,1.519e-05,0.0,0 STARLINK-5602,1 55743U 23028C   24128.73605481  .00001519  00000-0  13508-3 0  9996,2 55743  69.9982 136.3389 0003103 269.3829  90.6974 14.98336143 65534,6950.174,96.107,574.196,569.882,0.0
55743.0,STARLINK-5602,PAYLOAD,2024-05-08 04:52:51,14.98339626,0.0003122,69.9981,135.1606,268.9267,91.1534,0.00012133,1.355e-05,0.0,0 STARLINK-5602,1 55743U 23028C   24129.20337161  .00001355  00000-0  12133-3 0  9997,2 55743  69.9981 135.1606 0003122 268.9267  91.1534 14.98339626 65609,6950.163,96.106,574.198,569.858,0.0
55743.0,STARLINK-5602,PAYLOAD,2024-05-08 09:41:15,14.98341391,0.0003098,69.9982,134.6554,269.7245,90.356,0.00014058,1.585e-05,0.0,0 STARLINK-5602,1 55743U 23028C   24129.40364914  .00001585  00000-0  14058-3 0  9998,2 55743  69.9982 134.6554 0003098 269.7245  90.3560 14.98341391 65638,6950.158,96.106,574.176,569.87,0.0
55743.0,STARLINK-5602,PAYLOAD,2024-05-08 19:18:04,14.98334204,0.0003016,69.9983,133.6453,269.4465,90.6349,3.5616e-05,3.32e-06,0.0,0 STARLINK-5602,1 55743U 23028C   24129.80421459  .00000332  00000-0  35616-4 0  9993,2 55743  69.9983 133.6453 0003016 269.4465  90.6349 14.98334204 65696,6950.18,96.107,574.141,569.949,0.0
55743.0,STARLINK-5602,PAYLOAD,2024-05-09 09:43:16,14.98330999,0.0002984,69.9985,132.1306,267.8431,92.2386,-3.0497e-05,-4.57e-06,0.0,0 STARLINK-5602,1 55743U 23028C   24130.40505617 -.00000457  00000-0 -30497-4 0  9992,2 55743  69.9985 132.1306 0002984 267.8431  92.2386 14.98330999 65783,6950.19,96.107,574.129,569.981,0.0
55743.0,STARLINK-5602,PAYLOAD,2024-05-10 03:20:45,14.98335304,0.0002998,69.9985,130.2789,267.5417,92.5398,-1.2862e-05,-2.47e-06,0.0,0 STARLINK-5602,1 55743U 23028C   24131.13941228 -.00000247  00000-0 -12862-4 0  9998,2 55743  69.9985 130.2789 0002998 267.5417  92.5398 14.98335304 65896,6950.176,96.107,574.125,569.958,0.0
55743.0,STARLINK-5602,PAYLOAD,2024-05-10 09:45:17,14.98334897,0.0002975,69.9986,129.6055,267.1081,92.9738,-6.8023e-06,-1.74e-06,0.0,0 STARLINK-5602,1 55743U 23028C   24131.40645149 -.00000174  00000-0 -68023-5 0  9991,2 55743  69.9986 129.6055 0002975 267.1081  92.9738 14.98334897 65936,6950.178,96.107,574.11,569.975,0.0
55743.0,STARLINK-5602,PAYLOAD,2024-05-10 17:45:57,14.98333134,0.0003069,69.9984,128.7639,267.5637,92.5171,4.0755e-05,3.93e-06,0.0,0 STARLINK-5602,1 55743U 23028C   24131.74025081  .00000393  00000-0  40755-4 0  9997,2 55743  69.9984 128.7639 0003069 267.5637  92.5171 14.98333134 65983,6950.183,96.107,574.181,569.915,0.0
